ORBCOMM FM06            
1 25118U 97084G   26155.39055971  .00001656  00000+0  48509-3 0  9999
2 25118  45.0129 114.3138 0002127 292.1375 212.0306 14.47529998492537
ORBCOMM FM04            
1 25159U 98007C   26155.92274091  .00001122  00000+0  42973-3 0  9992
2 25159 107.9626 144.1779 0040937 345.9198  14.0799 14.35717941474838
ORBCOMM FM19            
1 25415U 98046C   26156.16534993  .00001173  00000+0  41838-3 0  9992
2 25415  44.9943 300.7042 0004118 233.5460 296.0180 14.39476658455042
ORBCOMM FM20            
1 25416U 98046D   26156.13345934  .00000854  00000+0  32594-3 0  9999
2 25416  44.9950 308.6458 0001413 209.3254 150.7515 14.38049808455057
ORBCOMM FM27            
1 25481U 98053G   26155.96978141  .00001122  00000+0  40515-3 0  9992
2 25481  45.0065  33.3805 0000376  18.6133 341.4730 14.39117893448477
ORBCOMM FM32            
1 25982U 99065C   26155.70800383  .00000722  00000+0  28816-3 0  9991
2 25982  45.0147 232.3088 0005333 333.3641  26.6933 14.37115357385295
ORBCOMM FM109           
1 40086U 14040A   26155.49653985  .00000548  00000+0  15212-3 0  9995
2 40086  47.0014 151.4867 0001463 208.2409 151.8398 14.58828986632495
ORBCOMM FM114           
1 41179U 15081A   26152.97982418  .00000602  00000+0  16356-3 0  9992
2 41179  47.0052  73.9009 0001546 135.7645 224.3365 14.58838571555535
ORBCOMM FM110           
1 41182U 15081D   26153.99571428  .00000757  00000+0  19640-3 0  9994
2 41182  47.0024  68.5419 0003230 358.8742   1.2136 14.58854978555550
ORBCOMM FM118           
1 41183U 15081E   26153.00264808  .00003490  00000+0  77410-3 0  9994
2 41183  47.0044  73.5648 0003601 319.9456  40.1164 14.58855670555514
ORBCOMM FM112           
1 41184U 15081F   26154.92509755  .00000774  00000+0  19993-3 0  9994
2 41184  47.0002 332.9588 0002853 156.2959 203.8059 14.58883627557013
ORBCOMM FM113           
1 41185U 15081G   26156.20258946  .00000539  00000+0  15023-3 0  9990
2 41185  47.0019 327.2885 0001524 173.9999 186.0905 14.58845078557181
ORBCOMM FM108           
1 41187U 15081J   26152.94619103  .00000948  00000+0  23678-3 0  9994
2 41187  47.0049 254.2558 0002129 152.3962 207.7037 14.58851287557855
ORBCOMM FM117           
1 41188U 15081K   26153.73351514  .00000838  00000+0  21351-3 0  9996
2 41188  47.0011 249.1714 0002701 159.5688 200.5306 14.58849437558015
ORBCOMM FM116           
1 41189U 15081L   26156.17961066  .00000759  00000+0  19679-3 0  9999
2 41189  47.0034 327.3957 0001292 353.0293   7.0575 14.58864242557182
